LEMUR-2-ROUNDTRIPPER    
1 62711U 25009DG  26180.46948947  .00007911  00000+0  57682-3 0  9999
2 62711  97.7243 263.1321 0005235 102.2491 257.9321 15.03984419 79473
LEMUR-2-MYNAMEISJEFF    
1 62712U 25009DH  26179.86910397  .00007263  00000+0  53027-3 0  9999
2 62712  97.7288 262.9204 0003897 130.8947 229.2617 15.03969717 79389
LEMUR-2-LEIA-PHILIP     
1 63246U 25052AN  26179.96493254  .00001424  00000+0  12765-3 0  9996
2 63246  97.6816  71.7169 0003982 169.2550 190.8758 14.97342925 70439
LEMUR-2-LIA-MARTIN      
1 63248U 25052AQ  26180.50037856  .00004377  00000+0  37650-3 0  9992
2 63248  97.6871  72.7365 0004220 132.1436 228.0145 14.97895303 70526
LEMUR-2-DELOITTE-1      
1 63259U 25052BB  26180.27795785  .00002807  00000+0  24465-3 0  9996
2 63259  97.6914  72.8488 0002837  72.4140 287.7392 14.97684550 70507
LEMUR-2-EMERSONROSE     
1 63261U 25052BD  26179.97428431  .00003846  00000+0  32092-3 0  9994
2 63261  97.6876  73.1288 0002243  78.7268 281.4207 14.99161995 70501
LEMUR-2-MARACHE-FRAN    
1 63262U 25052BE  26179.67469864  .00004012  00000+0  32566-3 0  9999
2 63262  97.6915  73.1755 0004482 333.9339  26.1658 15.00198613 70488
LEMUR-2-THEFALCONER     
1 63264U 25052BG  26180.50660538  .00003658  00000+0  31910-3 0  9993
2 63264  97.6845  72.6795 0001323  20.7056 339.4219 14.97463030 70530
LEMUR-2-UNTITLED-SC     
1 63351U 25061A   26180.45189895  .00002907  00000+0  16533-3 0  9996
2 63351  97.5638 155.7248 0017533 218.2681 141.7307 15.13554276 69442
LEMUR-2-ESPERANZA       
1 63352U 25061B   26179.89943124  .00003138  00000+0  17776-3 0  9993
2 63352  97.5641 155.2723 0017133 219.6340 140.3640 15.13641436 69364
LEMUR-2-KREMPEL-BRO2    
1 63353U 25061C   26180.45173245  .00003009  00000+0  16842-3 0  9997
2 63353  97.5693 156.3698 0018262 209.6848 150.3349 15.14084775 69467
LEMUR-2-THERMORAPTOR    
1 63354U 25061D   26179.97055676  .00003228  00000+0  18006-3 0  9997
2 63354  97.5694 155.9693 0017989 210.4483 149.5705 15.14161984 69395
LEMUR-2-NEUROSPICY      
1 63355U 25061E   26180.33780992  .00003859  00000+0  21398-3 0  9994
2 63355  97.5625 155.9514 0015802 212.1807 147.8461 15.14282429 69458
LEMUR-2-TILLINFINITY    
1 63356U 25061F   26180.43444201  .00003371  00000+0  18425-3 0  9992
2 63356  97.5609 156.3466 0017370 199.6542 160.4022 15.14866453 69492
LEMUR-2-KREMPEL-BRO1    
1 63357U 25061G   26180.47554727  .00003848  00000+0  21085-3 0  9997
2 63357  97.5611 156.3001 0017991 201.0934 158.9558 15.14673549 69491
LEMUR-2-LANGER2SPACE    
1 63358U 25061H   26180.43843110  .00003214  00000+0  17840-3 0  9992
2 63358  97.5614 156.0722 0015724 209.9034 150.1301 15.14368379 69472
LEMUR-2-BALTO           
1 63395U 25052BH  26180.52649725  .00005315  00000+0  42943-3 0  9995
2 63395  97.6928  73.9931 0006401  24.4079 335.7446 15.00218720 70610
LEMUR-2-KRISH           
1 64561U 25135AK  26180.31246352  .00004565  00000+0  40887-3 0  9990
2 64561  97.7751 295.1055 0001137 106.9908 253.1438 14.96309974 55730
LEMUR-2-HUBBLE-4        
1 64565U 25135AP  26180.33137308  .00001966  00000+0  19142-3 0  9998
2 64565  97.7708 294.0924 0001315 213.8092 146.3044 14.93649977 55686
LEMUR-2-SEJONG-2        
1 64586U 25135BL  26180.47222888  .00005115  00000+0  45176-3 0  9990
2 64586  97.7708 295.4089 0002689 289.6791  70.4140 14.96797724 55780
LEMUR-2-HUBBLE-5        
1 64840U 25135BT  26180.54671184  .00001651  00000+0  15951-3 0  9997
2 64840  97.7729 294.9577 0004177 305.8045  54.2786 14.94173184 55758
LEMUR-2-KARENDARRELL    
1 64841U 25135BU  26179.85737166  .00007791  00000+0  62571-3 0  9994
2 64841  97.7691 296.0459 0010749 158.6524 201.5150 15.00280056 55765
LEMUR-2-LUCILLE-ROSE    
1 65403U 25135BV  26180.29769047  .00006168  00000+0  49605-3 0  9992
2 65403  97.7743 296.5167 0012778 239.2408 120.7557 15.00300084 50458
LEMUR-2-AFFIE-WAUWIE    
1 66295U 25248C   26179.37086131  .00022418  00000+0  82305-3 0  9990
2 66295  45.3941  54.3798 0007838 160.1118 200.0078 15.27614194 36305
LEMUR-2-DEANANDMAEVE    
1 66678U 25276N   26179.70504512  .00005858  00000+0  27612-3 0  9990
2 66678  97.4215 252.9897 0004636 331.0855  29.0122 15.19869078 32161
LEMUR-2-STAS-GORBUK     
1 66686U 25276W   26179.72228475  .00004902  00000+0  23409-3 0  9991
2 66686  97.4249 253.0607 0003911 331.3491  28.7528 15.19497795 32161
LEMUR-2-TEODOR          
1 66768U 25276DG  26180.54856448  .00005993  00000+0  27191-3 0  9994
2 66768  97.4153 254.1253 0002354 103.8445 256.3053 15.21181104 32323
LEMUR-2-LAILA           
1 66776U 25276DQ  26179.92873681  .00005328  00000+0  24055-3 0  9999
2 66776  97.4179 253.6432 0002758 119.4377 240.7135 15.21397721 32230
LEMUR-2-CELIJO-SB-PK    
1 66781U 25276DW  26180.44397608  .00005824  00000+0  47108-3 0  9999
2 66781  97.5226 250.8183 0007968 103.0703 257.1411 15.00118943 24461
LEMUR-2-FINNIAN         
1 66782U 25276DX  26179.95096155  .00002879  00000+0  23306-3 0  9998
2 66782  97.5326 250.5717 0008647  55.2677 304.9361 15.00474231 21766
