OBJECT_NAME,OBJECT_ID,EPOCH,MEAN_MOTION,ECCENTRICITY,INCLINATION,RA_OF_ASC_NODE,ARG_OF_PERICENTER,MEAN_ANOMALY,EPHEMERIS_TYPE,CLASSIFICATION_TYPE,NORAD_CAT_ID,ELEMENT_SET_NO,REV_AT_EPOCH,BSTAR,MEAN_MOTION_DOT,MEAN_MOTION_DDOT
LEMUR-2-ROUNDTRIPPER,2025-009DG,2026-06-29T11:16:03.890208,15.03984419,.0005235,97.7243,263.1321,102.2491,257.9321,0,U,62711,999,7947,.57682E-3,.7911E-4,0
LEMUR-2-MYNAMEISJEFF,2025-009DH,2026-06-28T20:51:30.583008,15.03969717,.00038971,97.7288,262.9204,130.8947,229.2617,0,U,62712,999,7938,.53027103E-3,.7263E-4,0
LEMUR-2-LEIA-PHILIP,2025-052AN,2026-06-28T23:09:30.171456,14.97342925,.00039822,97.6816,71.7169,169.2550,190.8758,0,U,63246,999,7043,.12764707E-3,.1424E-4,0
LEMUR-2-LIA-MARTIN,2025-052AQ,2026-06-29T12:00:32.707584,14.97895303,.000422,97.6871,72.7365,132.1436,228.0145,0,U,63248,999,7052,.3765E-3,.4377E-4,0
LEMUR-2-DELOITTE-1,2025-052BB,2026-06-29T06:40:15.558240,14.97684550,.0002837,97.6914,72.8488,72.4140,287.7392,0,U,63259,999,7050,.24465E-3,.2807E-4,0
LEMUR-2-EMERSONROSE,2025-052BD,2026-06-28T23:22:58.164384,14.99161995,.00022434,97.6876,73.1288,78.7268,281.4207,0,U,63261,999,7050,.32091815E-3,.3846E-4,0
LEMUR-2-MARACHE-FRAN,2025-052BE,2026-06-28T16:11:33.962496,15.00198613,.00044824,97.6915,73.1755,333.9339,26.1658,0,U,63262,999,7048,.32565658E-3,.4012E-4,0
LEMUR-2-THEFALCONER,2025-052BG,2026-06-29T12:09:30.704832,14.97463030,.0001323,97.6845,72.6795,20.7056,339.4219,0,U,63264,999,7053,.3191E-3,.3658E-4,0
LEMUR-2-UNTITLED-SC,2025-061A,2026-06-29T10:50:44.069280,15.13554276,.0017533,97.5638,155.7248,218.2681,141.7307,0,U,63351,999,6944,.16533E-3,.2907E-4,0
LEMUR-2-ESPERANZA,2025-061B,2026-06-28T21:35:10.859136,15.13641436,.00171336,97.5641,155.2723,219.6340,140.3640,0,U,63352,999,6936,.17775824E-3,.3138E-4,0
LEMUR-2-KREMPEL-BRO2,2025-061C,2026-06-29T10:50:29.683680,15.14084775,.0018262,97.5693,156.3698,209.6848,150.3349,0,U,63353,999,6946,.16842E-3,.3009E-4,0
LEMUR-2-THERMORAPTOR,2025-061D,2026-06-28T23:17:36.104064,15.14161984,.00179896,97.5694,155.9693,210.4483,149.5705,0,U,63354,999,6939,.18005956E-3,.3228E-4,0
LEMUR-2-NEUROSPICY,2025-061E,2026-06-29T08:06:26.777088,15.14282429,.0015802,97.5625,155.9514,212.1807,147.8461,0,U,63355,999,6945,.21398E-3,.3859E-4,0
LEMUR-2-TILLINFINITY,2025-061F,2026-06-29T10:25:35.789664,15.14866453,.001737,97.5609,156.3466,199.6542,160.4022,0,U,63356,999,6949,.18425E-3,.3371E-4,0
LEMUR-2-KREMPEL-BRO1,2025-061G,2026-06-29T11:24:47.284128,15.14673549,.0017991,97.5611,156.3001,201.0934,158.9558,0,U,63357,999,6949,.21085E-3,.3848E-4,0
LEMUR-2-LANGER2SPACE,2025-061H,2026-06-29T10:31:20.447040,15.14368379,.0015724,97.5614,156.0722,209.9034,150.1301,0,U,63358,999,6947,.1784E-3,.3214E-4,0
LEMUR-2-BALTO,2025-052BH,2026-06-29T12:38:09.362400,15.00218720,.0006401,97.6928,73.9931,24.4079,335.7446,0,U,63395,999,7061,.42943E-3,.5315E-4,0
LEMUR-2-KRISH,2025-135AK,2026-06-29T07:29:56.848128,14.96309974,.0001137,97.7751,295.1055,106.9908,253.1438,0,U,64561,999,5573,.40887E-3,.4565E-4,0
LEMUR-2-HUBBLE-4,2025-135AP,2026-06-29T07:57:10.634112,14.93649977,.0001315,97.7708,294.0924,213.8092,146.3044,0,U,64565,999,5568,.19142E-3,.1966E-4,0
LEMUR-2-SEJONG-2,2025-135BL,2026-06-29T11:20:00.575232,14.96797724,.0002689,97.7708,295.4089,289.6791,70.4140,0,U,64586,999,5578,.45176E-3,.5115E-4,0
LEMUR-2-HUBBLE-5,2025-135BT,2026-06-29T13:07:15.902976,14.94173184,.0004177,97.7729,294.9577,305.8045,54.2786,0,U,64840,999,5575,.15951E-3,.1651E-4,0
LEMUR-2-KARENDARRELL,2025-135BU,2026-06-28T20:34:36.911424,15.00280056,.00107492,97.7691,296.0459,158.6524,201.5150,0,U,64841,999,5576,.62570598E-3,.7791E-4,0
LEMUR-2-LUCILLE-ROSE,2025-135BV,2026-06-29T07:08:40.456608,15.00300084,.0012778,97.7743,296.5167,239.2408,120.7557,0,U,65403,999,5045,.49605E-3,.6168E-4,0
LEMUR-2-AFFIE-WAUWIE,2025-248C,2026-06-28T08:54:02.417184,15.27614194,.0007838,45.3941,54.3798,160.1118,200.0078,0,U,66295,999,3630,.82305476E-3,.22418E-3,0
LEMUR-2-DEANANDMAEVE,2025-276N,2026-06-28T16:55:15.898368,15.19869078,.00046363,97.4215,252.9897,331.0855,29.0122,0,U,66678,999,3216,.27612052E-3,.5858E-4,0
LEMUR-2-STAS-GORBUK,2025-276W,2026-06-28T17:20:05.402400,15.19497795,.00039111,97.4249,253.0607,331.3491,28.7528,0,U,66686,999,3216,.23409415E-3,.4902E-4,0
LEMUR-2-TEODOR,2025-276DG,2026-06-29T13:09:55.971072,15.21181104,.0002354,97.4153,254.1253,103.8445,256.3053,0,U,66768,999,3232,.27191E-3,.5993E-4,0
LEMUR-2-LAILA,2025-276DQ,2026-06-28T22:17:22.860384,15.21397721,.00027586,97.4179,253.6432,119.4377,240.7135,0,U,66776,999,3223,.24054524E-3,.5328E-4,0
LEMUR-2-CELIJO-SB-PK,2025-276DW,2026-06-29T10:39:19.533312,15.00118943,.0007968,97.5226,250.8183,103.0703,257.1411,0,U,66781,999,2446,.47108E-3,.5824E-4,0
LEMUR-2-FINNIAN,2025-276DX,2026-06-28T22:49:23.077920,15.00474231,.00086472,97.5326,250.5717,55.2677,304.9361,0,U,66782,999,2176,.23306448E-3,.2879E-4,0
